ONEWEB-0674             
1 55833U 23029AP  24165.78572119 -.00000169  00000+0 -49153-3 0  9990
2 55833  87.8968  75.6461 0002122  95.4844 264.6527 13.14503328 63069
ONEWEB-0675             
1 55834U 23029AQ  24165.83139957  .00000079  00000+0  16414-3 0  9998
2 55834  87.9160  90.9159 0002006  66.9929 293.1415 13.19726901 62192
ONEWEB-0720             
1 55835U 23029AR  24165.82351358  .00000214  00000+0  50220-3 0  9993
2 55835  87.9158  90.9183 0002579  79.6872 280.4551 13.19725710 62119
ONEWEB-0537             
1 56046U 23043A   24165.82393926  .00000051  00000+0  99377-4 0  9997
2 56046  87.9105  14.7600 0001611  77.2462 282.8849 13.16594180 62465
ONEWEB-0538             
1 56047U 23043B   24165.81760848  .00000058  00000+0  11797-3 0  9994
2 56047  87.9106  14.7808 0001960  78.0549 282.0802 13.16593648 62479
ONEWEB-0546             
1 56048U 23043C   24165.65294529  .00000142  00000+0  33824-3 0  9994
2 56048  87.9107  14.7774 0000995  71.6628 288.4611 13.16593740 62445
ONEWEB-0547             
1 56049U 23043D   24165.67530984  .00000052  00000+0  95226-4 0  9990
2 56049  87.9294  29.9977 0001742  72.2568 287.8756 13.21766938 61323
ONEWEB-0548             
1 56050U 23043E   24165.83027643  .00000016  00000+0  91527-5 0  9994
2 56050  87.9106  14.7853 0001959 104.2008 255.9341 13.16594538 62468
